FENGYUN 3D              
1 43010U 17072A   26169.90922910  .00000151  00000+0  93035-4 0  9991
2 43010  99.0129 144.3630 0002490  60.7229 299.4195 14.19740067445238
NOAA 20 (JPSS-1)        
1 43013U 17073A   26169.83397997  .00000032  00000+0  36054-4 0  9994
2 43013  98.7770 109.2820 0000317 110.2389 249.8821 14.19511976444705
GOES 17                 
1 43226U 18022A   26169.80585730 -.00000189  00000+0  00000+0 0  9997
2 43226   0.9422  85.6810 0000491  27.7063 354.2380  1.00269550 30447
SENTINEL-3B             
1 43437U 18039A   26169.73256734  .00000075  00000+0  49208-4 0  9991
2 43437  98.6249 237.2427 0000722  91.4594 268.6669 14.26735105424345
FENGYUN 2H              
1 43491U 18050A   26169.83935609 -.00000137  00000+0  00000+0 0  9992
2 43491   3.0362  79.0537 0001952 138.1870  71.3920  1.00269379 29452
METOP-C                 
1 43689U 18087A   26169.82773191  .00000066  00000+0  50110-4 0  9998
2 43689  98.6644 229.4014 0001818 127.5094 232.6249 14.21512480395066
GEO-KOMPSAT-2A          
1 43823U 18100A   26169.82957752 -.00000350  00000+0  00000+0 0  9996
2 43823   0.0486 155.8856 0001855 291.7912 246.2863  1.00269180 27645
METEOR-M2 2             
1 44387U 19038A   26169.86033359  .00000042  00000+0  38117-4 0  9997
2 44387  98.9145 157.1706 0002012  45.4805 314.6537 14.24366548361532
ARKTIKA-M 1             
1 47719U 21016A   26168.49069990 -.00000210  00000+0  00000+0 0  9999
2 47719  63.2922  57.5948 7288528 269.9420  14.6012  2.00622504 38796
FENGYUN 3E              
1 49008U 21062A   26169.89290285 -.00000245  00000+0 -94573-4 0  9993
2 49008  98.7489 173.2819 0002855  83.4449 276.7052 14.19903829256829
GOES 18                 
1 51850U 22021A   26169.79641060  .00000090  00000+0  00000+0 0  9990
2 51850   0.0077  61.9151 0000347  83.1966 271.6138  1.00271259  6602
NOAA 21 (JPSS-2)        
1 54234U 22150A   26169.79633764  .00000043  00000+0  41088-4 0  9998
2 54234  98.7058 108.5586 0001762 150.3133 209.8143 14.19565692186776
METEOSAT-12 (MTG-I1)    
1 54743U 22170C   26169.82357359 -.00000014  00000+0  00000+0 0  9995
2 54743   0.7406  23.2950 0003242  71.0245 108.8204  1.00273080 12998
TIANMU-1 03             
1 55973U 23039A   26169.86095920  .00012171  00000+0  24015-3 0  9995
2 55973  97.5237 343.8951 0004147  94.8850 265.2873 15.47324461181096
TIANMU-1 04             
1 55974U 23039B   26169.84978984  .00012547  00000+0  24241-3 0  9992
2 55974  97.5172 343.0374 0004836  91.5227 268.6577 15.47922832181109
TIANMU-1 05             
1 55975U 23039C   26169.84180262  .00012211  00000+0  24154-3 0  9998
2 55975  97.5220 343.4895 0004036 111.2179 248.9502 15.47250142181077
TIANMU-1 06             
1 55976U 23039D   26169.85327156  .00012515  00000+0  24262-3 0  9992
2 55976  97.5224 344.1390 0004384 106.4481 253.7251 15.47826661181102
FENGYUN 3G              
1 56232U 23055A   26169.84410743  .00018523  00000+0  30085-3 0  9995
2 56232  49.9937 337.4829 0007028 303.5137  56.5158 15.52692040180267
METEOR-M2 3             
1 57166U 23091A   26169.85502900 -.00000011  00000+0  13884-4 0  9993
2 57166  98.6082 224.7993 0004441 151.1805 208.9620 14.24046937154759
TIANMU-1 07             
1 57399U 23101A   26169.86619696  .00004967  00000+0  17450-3 0  9990
2 57399  97.2587 220.4962 0004162 118.1343 242.0319 15.29823704161901
TIANMU-1 08             
1 57400U 23101B   26169.83283419  .00005106  00000+0  17925-3 0  9993
2 57400  97.2576 220.2340 0005637 111.2116 248.9727 15.29828392161894
TIANMU-1 09             
1 57401U 23101C   26169.88162347  .00005155  00000+0  18081-3 0  9993
2 57401  97.2533 219.6965 0004670 122.8896 237.2795 15.29860141161908
TIANMU-1 10             
1 57402U 23101D   26169.84929675  .00005098  00000+0  17898-3 0  9996
2 57402  97.2613 220.7171 0006229 121.8522 238.3325 15.29831413161896
FENGYUN 3F              
1 57490U 23111A   26169.80631586  .00000049  00000+0  43468-4 0  9995
2 57490  98.6836 239.7849 0001583  92.1786 267.9571 14.19939396149093
ARKTIKA-M 2             
1 58584U 23198A   26168.75920439  .00000145  00000+0  00000+0 0  9993
2 58584  63.2243 154.2919 6902344 267.4286  18.7609  2.00612717 18338
TIANMU-1 11             
1 58645U 23205A   26169.82281183  .00004399  00000+0  16856-3 0  9990
2 58645  97.3444 191.3541 0008754  11.7415 348.4026 15.27009589137776
TIANMU-1 12             
1 58646U 23205B   26169.85874637  .00004547  00000+0  17439-3 0  9999
2 58646  97.3433 191.1448 0006529 357.6315   2.4892 15.26974731137764
TIANMU-1 13             
1 58647U 23205C   26169.82555031  .00004455  00000+0  17169-3 0  9999
2 58647  97.3461 191.3850 0005709 334.9991  25.0971 15.26827865137755
TIANMU-1 14             
1 58648U 23205D   26169.87624447  .00004525  00000+0  17410-3 0  9990
2 58648  97.3396 190.6154 0006649 338.9818  21.1147 15.26872958137764
TIANMU-1 19             
1 58660U 23208A   26169.85498284  .00006422  00000+0  21305-3 0  9999
2 58660  97.4509 286.1631 0003713 320.5458  39.5513 15.31594426137589
TIANMU-1 20             
1 58661U 23208B   26169.89148307  .00006318  00000+0  20199-3 0  9996
2 58661  97.4452 286.8370 0005888 326.8375  33.2497 15.32785440137688
